25117,ORBCOMM FM05,1997,99.59,45.0,-,45.01,Inactive,1,LEO,Eastern Range Airspace,ORBCOMM,Commercial,Communications,Pegasus,1 25117U 97084F   25193.64184523  .00000639  00000+0  21807-3 0  9995,2 25117  45.0141 245.8326 0003464 295.1090  64.9402 14.45999215444293,14.45999215,0.0003464,LEO
25119,ORBCOMM FM07,1997,99.58,45.0,-,45.01,Inactive,1,LEO,Eastern Range Airspace,ORBCOMM,Commercial,Communications,Pegasus,1 25119U 97084H   25194.54297025  .00000677  00000+0  22806-3 0  9991,2 25119  45.0128 241.9831 0004225 303.4984  56.5464 14.46131642445355,14.46131642,0.0004225,LEO
25158,ORBCOMM FM03,1998,100.38,-1.0,-,107.97,Inactive,0,LEO,USA,ORBCOMM,Unknown,Unknown,Unknown,1 25158U 98007B   25193.92585569  .00000564  00000+0  24364-3 0  9990,2 25158 107.9660 188.4755 0045466 205.9976 153.8878 14.34548924427730,14.34548924,0.0045466,LEO
25413,ORBCOMM FM17,1998,100.34,-1.0,-,44.99,Inactive,0,LEO,Eastern Range Airspace,ORBCOMM,Unknown,Unknown,Unknown,1 25413U 98046A   25194.50351885  .00000507  00000+0  22484-3 0  9992,2 25413  44.9936 133.4018 0004542 335.5516  24.5115 14.35129123407128,14.35129123,0.0004542,LEO
25414,ORBCOMM FM18,1998,100.1,45.0,-,44.99,Inactive,1,LEO,Eastern Range Airspace,ORBCOMM,Commercial,Communications,Pegasus,1 25414U 98046B   25193.83651794  .00000659  00000+0  25924-3 0  9990,2 25414  44.9938  53.2613 0005284  52.8914 307.2417 14.38604446407941,14.38604446,0.0005284,LEO
25118,ORBCOMM FM06,1997,99.58,45.0,+,45.01,Active,1,LEO,Eastern Range Airspace,ORBCOMM,Commercial,Communications,Pegasus,1 25118U 97084G   25194.55859657  .00000711  00000+0  23755-3 0  9999,2 25118  45.0132 241.1400 0002864 282.8201 228.6421 14.46133637445364,14.46133637,0.0002864,LEO
25159,ORBCOMM FM04,1998,100.36,45.0,+,107.96,Active,1,LEO,USA,ORBCOMM,Commercial,Communications,Taurus,1 25159U 98007C   25193.76619173  .00000511  00000+0  22475-3 0  9995,2 25159 107.9650 191.3868 0041202 203.9252 155.9973 14.34794797427894,14.34794797,0.0041202,LEO
25415,ORBCOMM FM19,1998,100.11,45.0,+,44.99,Active,1,LEO,Eastern Range Airspace,ORBCOMM,Commercial,Communications,Pegasus,1 25415U 98046C   25194.02466745  .00000681  00000+0  26738-3 0  9992,2 25415  44.9950  54.4081 0004087  48.4198 104.8870 14.38413673408128,14.38413673,0.0004087,LEO
